[{"OBJECT_NAME":"GAOFEN-9 05","OBJECT_ID":"2020-058A","EPOCH":"2026-03-10T00:01:50.876256","MEAN_MOTION":15.30293976,"ECCENTRICITY":0.0010522,"INCLINATION":97.2228,"RA_OF_ASC_NODE":111.963,"ARG_OF_PERICENTER":91.0204,"MEAN_ANOMALY":269.2242,"EPHEMERIS_TYPE":0,"CLASSIFICATION_TYPE":"U","NORAD_CAT_ID":46232,"ELEMENT_SET_NO":999,"REV_AT_EPOCH":30843,"BSTAR":0.00025120304,"MEAN_MOTION_DOT":7.299e-5,"MEAN_MOTION_DDOT":0},{"OBJECT_NAME":"STARLINK-31432","OBJECT_ID":"2024-106L","EPOCH":"2026-03-09T21:36:19.774368","MEAN_MOTION":15.27564762,"ECCENTRICITY":0.00017264,"INCLINATION":42.9999,"RA_OF_ASC_NODE":331.4538,"ARG_OF_PERICENTER":253.5759,"MEAN_ANOMALY":106.4903,"EPHEMERIS_TYPE":0,"CLASSIFICATION_TYPE":"U","NORAD_CAT_ID":59932,"ELEMENT_SET_NO":999,"REV_AT_EPOCH":10054,"BSTAR":8.3561477e-5,"MEAN_MOTION_DOT":2.037e-5,"MEAN_MOTION_DDOT":0}]
